[{"OBJECT_NAME":"STARLINK-4621","OBJECT_ID":"2022-105AE","EPOCH":"2026-03-09T16:00:46.917216","MEAN_MOTION":15.01252403,"ECCENTRICITY":0.00033108,"INCLINATION":97.601,"RA_OF_ASC_NODE":310.1897,"ARG_OF_PERICENTER":33.3535,"MEAN_ANOMALY":326.7897,"EPHEMERIS_TYPE":0,"CLASSIFICATION_TYPE":"U","NORAD_CAT_ID":53676,"ELEMENT_SET_NO":999,"REV_AT_EPOCH":19323,"BSTAR":-7.6560656e-5,"MEAN_MOTION_DOT":-1.041e-5,"MEAN_MOTION_DDOT":0},{"OBJECT_NAME":"FENGYUN 1C DEB","OBJECT_ID":"1999-025ELG","EPOCH":"2026-02-16T12:48:31.445856","MEAN_MOTION":14.60850134,"ECCENTRICITY":0.0269289,"INCLINATION":98.3705,"RA_OF_ASC_NODE":316.8342,"ARG_OF_PERICENTER":306.6389,"MEAN_ANOMALY":51.0321,"EPHEMERIS_TYPE":0,"CLASSIFICATION_TYPE":"U","NORAD_CAT_ID":37691,"ELEMENT_SET_NO":999,"REV_AT_EPOCH":86593,"BSTAR":0.0030884,"MEAN_MOTION_DOT":0.00025342,"MEAN_MOTION_DDOT":0}]
